[{"OBJECT_NAME":"STARLINK-30596","OBJECT_ID":"2023-161P","EPOCH":"2026-03-09T13:10:54.120000","MEAN_MOTION":15.3018532,"ECCENTRICITY":9.531e-5,"INCLINATION":53.1581,"RA_OF_ASC_NODE":165.9283,"ARG_OF_PERICENTER":81.4219,"MEAN_ANOMALY":278.689,"EPHEMERIS_TYPE":0,"CLASSIFICATION_TYPE":"U","NORAD_CAT_ID":58110,"ELEMENT_SET_NO":999,"REV_AT_EPOCH":13440,"BSTAR":6.5109136e-5,"MEAN_MOTION_DOT":1.569e-5,"MEAN_MOTION_DDOT":0},{"OBJECT_NAME":"TEVEL2-6","OBJECT_ID":"2025-052F","EPOCH":"2026-03-09T15:35:24.554400","MEAN_MOTION":15.30760889,"ECCENTRICITY":0.0004769,"INCLINATION":97.4016,"RA_OF_ASC_NODE":325.0381,"ARG_OF_PERICENTER":95.6604,"MEAN_ANOMALY":264.5181,"EPHEMERIS_TYPE":0,"CLASSIFICATION_TYPE":"U","NORAD_CAT_ID":63215,"ELEMENT_SET_NO":999,"REV_AT_EPOCH":5486,"BSTAR":0.00070909,"MEAN_MOTION_DOT":0.00021046,"MEAN_MOTION_DDOT":0}]
